43567,GSAT0220 (GALILEO 24),2018,844.7,715.0,+,57.3,Active,1,MEO,French Guiana,ESA,Commercial,Navigation (Global or Regional Positioning),Ariane,1 43567U 18060D   24019.26148249 -.00000086  00000+0  00000+0 0  9995,2 43567  57.3023   5.5089 0005456 289.4597  70.4832  1.70475422 34179,1.70475422,0.0005456,MEO
43622,BEIDOU-3 M13,2018,773.23,800.0,+,55.87,Active,1,MEO,PRC,China,Government/Military,Navigation (Global or Regional Positioning),Long March,1 43622U 18072A   24020.00546754 -.00000069  00000+0  00000+0 0  9998,2 43622  55.8745  91.8606 0007281 285.2033  74.7544  1.86231052 36282,1.86231052,0.0007281,MEO
43623,BEIDOU-3 M14,2018,773.23,800.0,+,55.88,Active,1,MEO,PRC,China,Government/Military,Navigation (Global or Regional Positioning),Long March,1 43623U 18072B   24020.40787437 -.00000071  00000+0  00000+0 0  9991,2 43623  55.8768  91.8400 0004514 305.5526  54.4438  1.86231075 36281,1.86231075,0.0004514,MEO
44506,NAVSTAR 78 (USA 293),2019,717.96,2300.0,+,55.84,Active,1,MEO,USA,USA,Commercial/Military,Navigation (Global or Regional Positioning),Delta,1 44506U 19056A   24020.39043780 -.00000090  00000+0  00000+0 0  9990,2 44506  55.8382   5.9716 0038759 190.7191 338.3809  2.00568758 32448,2.00568758,0.0038759,MEO
44542,BEIDOU-3 M24,2019,773.23,800.0,+,54.46,Active,1,MEO,PRC,China,Government/Military,Navigation (Global or Regional Positioning),Long March,1 44542U 19061A   24019.71197725  .00000111  00000+0  00000+0 0  9992,2 44542  54.4637 212.4105 0008641  12.7167 347.3346  1.86231298 29414,1.86231298,0.0008641,MEO
44543,BEIDOU-3 M23,2019,773.23,800.0,+,54.46,Active,1,MEO,PRC,China,Government/Military,Navigation (Global or Regional Positioning),Long March,1 44543U 19061B   24020.46610076  .00000110  00000+0  00000+0 0  9995,2 44543  54.4622 212.3538 0005338  12.2103  45.5019  1.86231647 29437,1.86231647,0.0005338,MEO
44793,BEIDOU-3 M22,2019,773.23,800.0,+,54.67,Active,1,MEO,PRC,China,Government/Military,Navigation (Global or Regional Positioning),Long March,1 44793U 19078A   24020.09447541 -.00000110  00000+0  00000+0 0  9995,2 44793  54.6695 330.5365 0006712   9.3711 350.6356  1.86231959 28277,1.86231959,0.0006712,MEO
44794,BEIDOU-3 M21,2019,773.23,800.0,+,54.64,Active,1,MEO,PRC,China,Government/Military,Navigation (Global or Regional Positioning),Long March,1 44794U 19078B   24019.15078150 -.00000106  00000+0  00000+0 0  9992,2 44794  54.6442 330.5485 0004806 358.8946   1.1006  1.86232431 28260,1.86232431,0.0004806,MEO
44903,ELEKTRO-L 3,2019,1436.07,2094.0,+,0.08,Active,1,GSO,Kazakhstan,Russia/USSR,Government,Earth Observation,Proton,1 44903U 19095A   24020.47610575 -.00000093  00000+0  00000+0 0  9998,2 44903   0.0806 277.9931 0001333  20.6243  68.1258  1.00274082 14897,1.00274082,0.0001333,GEO
45854,NAVSTAR 79 (USA 304),2020,717.99,2300.0,+,56.0,Active,1,MEO,USA,USA,Commercial/Military,Navigation (Global or Regional Positioning),Falcon,1 45854U 20041A   24020.34020230 -.00000066  00000+0  00000+0 0  9996,2 45854  55.9982  63.2797 0040036 192.5122 241.2825  2.00560304 26412,2.00560304,0.0040036,MEO
46805,COSMOS 2547 [GLONASS-K],2020,675.73,1415.0,+,64.61,Active,1,MEO,Russia,Russia/USSR,Commercial/Military,Navigation (Global or Regional Positioning),Soyuz,1 46805U 20075A   24020.48887939  .00000112  00000+0  00000+0 0  9993,2 46805  64.6059 221.8627 0005310 235.2002 124.8016  2.13102921 25185,2.13102921,0.000531,MEO
46826,NAVSTAR 80 (USA 309),2020,717.98,2300.0,+,54.24,Active,1,MEO,USA,USA,Commercial/Military,Navigation (Global or Regional Positioning),Falcon,1 46826U 20078A   24020.03104903  .00000058  00000+0  00000+0 0  9992,2 46826  54.2436 246.4688 0039207 193.2694 354.0738  2.00561877 23871,2.00561877,0.0039207,MEO
49809,GSAT0223 (GALILEO 27),2021,844.7,733.0,+,57.29,Active,1,MEO,French Guiana,ESA,Commercial,Navigation (Global or Regional Positioning),Soyuz,1 49809U 21116A   24020.57606351 -.00000090  00000+0  00000+0 0  9990,2 49809  57.2934   5.3687 0003162 254.3238 282.7639  1.70475649 13206,1.70475649,0.0003162,MEO
49810,GSAT0224 (GALILEO 28),2021,844.7,733.0,+,57.29,Active,1,MEO,French Guiana,ESA,Commercial,Navigation (Global or Regional Positioning),Soyuz,1 49810U 21116B   24020.38437983 -.00000089  00000+0  00000+0 0  9992,2 49810  57.2944   5.3722 0002626 263.2842 268.6578  1.70475670 13224,1.7047567,0.0002626,MEO
51850,GOES 18,2022,1436.09,5209.0,+,0.02,Active,1,GSO,USA,USA,Government,Earth Observation,Atlas,1 51850U 22021A   24019.44408507  .00000102  00000+0  00000+0 0  9995,2 51850   0.0218 176.3277 0000637  73.8309 251.0249  1.00272603  6966,1.00272603,6.37e-05,GEO
